$$SOE
2460721.500000000, A.D. 2025-Feb-15 00:00:00.0000, 2.946256179639278E+08, 3.269334198743901E+08, 8.105127231176107E+07,
2460728.500000000, A.D. 2025-Feb-22 00:00:00.0000, 2.871788080798050E+08, 3.340281977773162E+08, 7.807639352016166E+07,
2460735.500000000, A.D. 2025-Mar-01 00:00:00.0000, 2.795762267719778E+08, 3.409419836920325E+08, 7.505914944453466E+07,
2460742.500000000, A.D. 2025-Mar-08 00:00:00.0000, 2.718218773271236E+08, 3.476708894816805E+08, 7.200114388850801E+07,
2460749.500000000, A.D. 2025-Mar-15 00:00:00.0000, 2.639198664778341E+08, 3.542111407585118E+08, 6.890400902188289E+07,
2460756.500000000, A.D. 2025-Mar-22 00:00:00.0000, 2.558743990654881E+08, 3.605590807253853E+08, 6.576940436044511E+07,
2460763.500000000, A.D. 2025-Mar-29 00:00:00.0000, 2.476897739423712E+08, 3.667111716425527E+08, 6.259901540030693E+07,
2460770.500000000, A.D. 2025-Apr-05 00:00:00.0000, 2.393703814452589E+08, 3.726639970515835E+08, 5.939455213518032E+07,
2460777.500000000, A.D. 2025-Apr-12 00:00:00.0000, 2.309207005191433E+08, 3.784142648529497E+08, 5.615774764302820E+07,
2460784.500000000, A.D. 2025-Apr-19 00:00:00.0000, 2.223452953087382E+08, 3.839588103500516E+08, 5.289035668910287E+07,
2460791.500000000, A.D. 2025-Apr-26 00:00:00.0000, 2.136488114951751E+08, 3.892945990515608E+08, 4.959415430598736E+07,
2460798.500000000, A.D. 2025-May-03 00:00:00.0000, 2.048359724977855E+08, 3.944187292464401E+08, 4.627093434399715E+07,
2460805.500000000, A.D. 2025-May-10 00:00:00.0000, 1.959115755760330E+08, 3.993284343557441E+08, 4.292250799232262E+07,
2460812.500000000, A.D. 2025-May-17 00:00:00.0000, 1.868804878749742E+08, 4.040210850159275E+08, 3.955070226658404E+07,
2460819.500000000, A.D. 2025-May-24 00:00:00.0000, 1.777476425949802E+08, 4.084941908354983E+08, 3.615735844491696E+07,
2460826.500000000, A.D. 2025-May-31 00:00:00.0000, 1.685180357107831E+08, 4.127454021332452E+08, 3.274433044232985E+07,
2460833.500000000, A.D. 2025-Jun-07 00:00:00.0000, 1.591967228473827E+08, 4.167725128602093E+08, 2.931348326109400E+07,
2460840.500000000, A.D. 2025-Jun-14 00:00:00.0000, 1.497888139559525E+08, 4.205734640333517E+08, 2.586669168173814E+07,
2460847.500000000, A.D. 2025-Jun-21 00:00:00.0000, 1.402994670113658E+08, 4.241463444061706E+08, 2.240583881852204E+07,
2460854.500000000, A.D. 2025-Jun-28 00:00:00.0000, 1.307338838674255E+08, 4.274893901425478E+08, 1.893281439985615E+07,
2460861.500000000, A.D. 2025-Jul-05 00:00:00.0000, 1.210973067627279E+08, 4.306009856492884E+08, 1.544951309148225E+07,
2460868.500000000, A.D. 2025-Jul-12 00:00:00.0000, 1.113950142937179E+08, 4.334796647597277E+08, 1.195783290831250E+07,
2460875.500000000, A.D. 2025-Jul-19 00:00:00.0000, 1.016323170516671E+08, 4.361241116926391E+08, 8.459673653229386E+06,
2460882.500000000, A.D. 2025-Jul-26 00:00:00.0000, 9.181455314099473E+07, 4.385331617302213E+08, 4.956935361663252E+06,
2460889.500000000, A.D. 2025-Aug-02 00:00:00.0000, 8.194708365194468E+07, 4.407058016377873E+08, 1.451516750358820E+06,
2460896.500000000, A.D. 2025-Aug-09 00:00:00.0000, 7.203528811871722E+07, 4.426411698120786E+08, -2.054686330430329E+06,
2460903.500000000, A.D. 2025-Aug-16 00:00:00.0000, 6.208456004777326E+07, 4.443385560970274E+08, -5.559782451036781E+06,
2460910.500000000, A.D. 2025-Aug-23 00:00:00.0000, 5.210030281681161E+07, 4.457974012858552E+08, -9.061886185828537E+06,
2460917.500000000, A.D. 2025-Aug-30 00:00:00.0000, 4.208792628146775E+07, 4.470172970263740E+08, -1.255911969553211E+07,
2460924.500000000, A.D. 2025-Sep-06 00:00:00.0000, 3.205284268061342E+07, 4.479979871318504E+08, -1.604961409443906E+07,
2460931.500000000, A.D. 2025-Sep-13 00:00:00.0000, 2.200046017728653E+07, 4.487393678127898E+08, -1.953151064942235E+07,
2460938.500000000, A.D. 2025-Sep-20 00:00:00.0000, 1.193617731154975E+07, 4.492414851853807E+08, -2.300296224188274E+07,
2460945.500000000, A.D. 2025-Sep-27 00:00:00.0000, 1.865379427808678E+06, 4.495045331752831E+08, -2.646213493267116E+07,
2460952.500000000, A.D. 2025-Oct-04 00:00:00.0000, -8.206564933666701E+06, 4.495288523628439E+08, -2.990720939868560E+07,
2460959.500000000, A.D. 2025-Oct-11 00:00:00.0000, -1.827430804846169E+07, 4.493149288328992E+08, -3.333638228180715E+07,
2460966.500000000, A.D. 2025-Oct-18 00:00:00.0000, -2.833252713286000E+07, 4.488633927613976E+08, -3.674786749681899E+07,
2460973.500000000, A.D. 2025-Oct-25 00:00:00.0000, -3.837592843569134E+07, 4.481750167561261E+08, -4.013989750860402E+07,
2460980.500000000, A.D. 2025-Nov-01 00:00:00.0000, -4.839925125162788E+07, 4.472507139728049E+08, -4.351072457939254E+07,
2460987.500000000, A.D. 2025-Nov-08 00:00:00.0000, -5.839727181594621E+07, 4.460915359807802E+08, -4.685862199021173E+07,
2460994.500000000, A.D. 2025-Nov-15 00:00:00.0000, -6.836480692811020E+07, 4.446986703255835E+08, -5.018188525333785E+07,
2461001.500000000, A.D. 2025-Nov-22 00:00:00.0000, -7.829671689735214E+07, 4.430734380147649E+08, -5.347883333327848E+07,
2461008.500000000, A.D. 2025-Nov-29 00:00:00.0000, -8.818790795974544E+07, 4.412172920694857E+08, -5.674780976846346E+07,
2461015.500000000, A.D. 2025-Dec-06 00:00:00.0000, -9.803333643933013E+07, 4.391318170137702E+08, -5.998718349521308E+07,
2461022.500000000, A.D. 2025-Dec-13 00:00:00.0000, -1.078280142142946E+08, 4.368187259357153E+08, -6.319534968762968E+07,
2461029.500000000, A.D. 2025-Dec-20 00:00:00.0000, -1.175670119931284E+08, 4.342798561490244E+08, -6.637073084861846E+07,
2461036.500000000, A.D. 2025-Dec-27 00:00:00.0000, -1.272454614721739E+08, 4.315171660554370E+08, -6.951177784162180E+07,
2461043.500000000, A.D. 2026-Jan-03 00:00:00.0000, -1.368585578294400E+08, 4.285327325999949E+08, -7.261697077900659E+07,
2461050.500000000, A.D. 2026-Jan-10 00:00:00.0000, -1.464015624416044E+08, 4.253287486460477E+08, -7.568481983156046E+07,
2461057.500000000, A.D. 2026-Jan-17 00:00:00.0000, -1.558698055895635E+08, 4.219075201845386E+08, -7.871386598694028E+07,
2461064.500000000, A.D. 2026-Jan-24 00:00:00.0000, -1.652586890732941E+08, 4.182714634068260E+08, -8.170268176168433E+07,
2461071.500000000, A.D. 2026-Jan-31 00:00:00.0000, -1.745636887118832E+08, 4.144231016406273E+08, -8.464987186921167E+07,
2461078.500000000, A.D. 2026-Feb-07 00:00:00.0000, -1.837803566669355E+08, 4.103650620990819E+08, -8.755407385417882E+07,
2461085.500000000, A.D. 2026-Feb-14 00:00:00.0000, -1.929043233362593E+08, 4.061000724351044E+08, -9.041395871802539E+07,
2461092.500000000, A.D. 2026-Feb-21 00:00:00.0000, -2.019312984305980E+08, 4.016309576855230E+08, -9.322823152478041E+07,
2461099.500000000, A.D. 2026-Feb-28 00:00:00.0000, -2.108570723189875E+08, 3.969606387664040E+08, -9.599563179464102E+07,
2461106.500000000, A.D. 2026-Mar-07 00:00:00.0000, -2.196775197008313E+08, 3.920921305773543E+08, -9.871493365729269E+07,
2461113.500000000, A.D. 2026-Mar-14 00:00:00.0000, -2.283886028276792E+08, 3.870285373864641E+08, -1.013849462101258E+08,
2461120.500000000, A.D. 2026-Mar-21 00:00:00.0000, -2.369863724939375E+08, 3.817730483978230E+08, -1.040045140083195E+08,
2461127.500000000, A.D. 2026-Mar-28 00:00:00.0000, -2.454669688086194E+08, 3.763289345370879E+08, -1.065725174203215E+08,
2461134.500000000, A.D. 2026-Apr-04 00:00:00.0000, -2.538266223529944E+08, 3.706995454954844E+08, -1.090878728736658E+08,
2461141.500000000, A.D. 2026-Apr-11 00:00:00.0000, -2.620616554517220E+08, 3.648883066770321E+08, -1.115495330465909E+08,
2461148.500000000, A.D. 2026-Apr-18 00:00:00.0000, -2.701684834002856E+08, 3.588987160469791E+08, -1.139564870217203E+08,
2461155.500000000, A.D. 2026-Apr-25 00:00:00.0000, -2.781436156050539E+08, 3.527343409009740E+08, -1.163077604061028E+08,
2461162.500000000, A.D. 2026-May-02 00:00:00.0000, -2.859836566071631E+08, 3.463988145301163E+08, -1.186024154241404E+08,
2461169.500000000, A.D. 2026-May-09 00:00:00.0000, -2.936853068671283E+08, 3.398958327200344E+08, -1.208395510012722E+08,
2461176.500000000, A.D. 2026-May-16 00:00:00.0000, -3.012453629336158E+08, 3.332291502259195E+08, -1.230183028623489E+08,
2461183.500000000, A.D. 2026-May-23 00:00:00.0000, -3.086607169466951E+08, 3.264025782486210E+08, -1.251378435662500E+08,
2461190.500000000, A.D. 2026-May-30 00:00:00.0000, -3.159283575577155E+08, 3.194199832342655E+08, -1.271973822610470E+08,
2461197.500000000, A.D. 2026-Jun-06 00:00:00.0000, -3.230453725867081E+08, 3.122852837275198E+08, -1.291961643997137E+08,
2461204.500000000, A.D. 2026-Jun-13 00:00:00.0000, -3.300089497542468E+08, 3.050024454796561E+08, -1.311334717371196E+08,
2461211.500000000, A.D. 2026-Jun-20 00:00:00.0000, -3.368163759939497E+08, 2.975754777397263E+08, -1.330086223251291E+08,
2461218.500000000, A.D. 2026-Jun-27 00:00:00.0000, -3.434650370491744E+08, 2.900084303934603E+08, -1.348209703811505E+08,
2461225.500000000, A.D. 2026-Jul-04 00:00:00.0000, -3.499524173571649E+08, 2.823053911792560E+08, -1.365699060959145E+08,
2461232.500000000, A.D. 2026-Jul-11 00:00:00.0000, -3.562760999693071E+08, 2.744704828522161E+08, -1.382548554160674E+08,
2461239.500000000, A.D. 2026-Jul-18 00:00:00.0000, -3.624337664176350E+08, 2.665078603240570E+08, -1.398752798092339E+08,
2461246.500000000, A.D. 2026-Jul-25 00:00:00.0000, -3.684231965062665E+08, 2.584217077833590E+08, -1.414306760147837E+08,
2461253.500000000, A.D. 2026-Aug-01 00:00:00.0000, -3.742422679829374E+08, 2.502162357495839E+08, -1.429205757898486E+08,
2461260.500000000, A.D. 2026-Aug-08 00:00:00.0000, -3.798889558790499E+08, 2.418956780263453E+08, -1.443445456743719E+08,
2461267.500000000, A.D. 2026-Aug-15 00:00:00.0000, -3.853613311065229E+08, 2.334642890054268E+08, -1.457021867774957E+08,
2461274.500000000, A.D. 2026-Aug-22 00:00:00.0000, -3.906575590762023E+08, 2.249263425436770E+08, -1.469931344168500E+08,
2461281.500000000, A.D. 2026-Aug-29 00:00:00.0000, -3.957759006312787E+08, 2.162861310413765E+08, -1.482170575148177E+08,
2461288.500000000, A.D. 2026-Sep-05 00:00:00.0000, -4.007147131653187E+08, 2.075479618560428E+08, -1.493736581833449E+08,
$$EOE